#cP2022 12 18  0  0  0.00000000      96 ORBIT IGS20 HLM  IGS
## 2241      0.00000000   900.00000000 59931 0.0000000000000
+   31   G01G02G03G04G05G06G07G08G09G10G11G12G13G14G15G16G17
+        G18G19G20G21G22G23G24G25G26G27G29G30G31G32  0  0  0
+          0  0  0  0  0  0  0  0  0  0  0  0  0  0  0  0  0
+          0  0  0  0  0  0  0  0  0  0  0  0  0  0  0  0  0
+          0  0  0  0  0  0  0  0  0  0  0  0  0  0  0  0  0
++         2  2  2  2  2  2  2  2  2  2  2  3  2  3  2  2  2
++         2  2  2  2  2  3  2  2  2  2  2  2  2  2  0  0  0
++         0  0  0  0  0  0  0  0  0  0  0  0  0  0  0  0  0
++         0  0  0  0  0  0  0  0  0  0  0  0  0  0  0  0  0
++         0  0  0  0  0  0  0  0  0  0  0  0  0  0  0  0  0
%c G  cc GPS ccc cccc cccc cccc cccc ccccc ccccc ccccc ccccc
%c cc cc ccc ccc cccc cccc cccc cccc ccccc ccccc ccccc ccccc
%f  1.2500000  1.025000000  0.00000000000  0.000000000000000
%f  0.0000000  0.000000000  0.00000000000  0.000000000000000
%i    0    0    0    0      0      0      0      0         0
%i    0    0    0    0      0      0      0      0         0
/* RAPID ORBIT COMBINATION FROM WEIGHTED AVERAGE OF:        
/* cod emr esa gfz grg jpl ngs sio usn whu                  
/* REFERENCED TO IGS TIME (IGST) AND TO WEIGHTED MEAN POLE: 
/* PCV:IGS20_2233 OL/AL:FES2014b NONE     Y  ORB:CMB CLK:CMB
*  2022 12 18  3  0  0.00000000
PG01  15600.882167   2199.073247  21136.077807    236.271249  5  5  4 106       
PG02 -14957.727749   2542.945624 -21148.360090   -632.447176  6  7  7 130       
PG03  19848.720765  -7599.778236  15739.379372   -375.229557  8  4  6 113       
PG04  25632.054212   -114.003991  -7169.257572    -66.491477  8 10  7  69       
PG05 -14226.381055  -6154.306413 -21748.527645   -108.489775  7  4  6 135       
PG06  -5132.280434 -25288.286773   6172.775752    542.260567  7  7  6  96       
PG07   9920.915884 -13830.136081 -19838.338528    272.823375  6  2  5  82       
PG08  25624.641179   6454.620682  -4296.882749    -99.183452  8  3  7  92       
PG09  19046.596975  -9010.329381 -16279.088692   -251.690055  8  5  4  90       
PG10  -9161.980076  22547.716620  10407.417190    -16.568291  2  5  4  94       
PG11 -12107.547361 -22751.571936  -6490.450842    -59.195074  6  5  6  99       
PG12 -20171.592691   5331.604487  16101.544746   -317.233687  5  9  5  74       
PG13 -20868.898316 -13428.663577  -9900.982100    443.834745  5  2  6 122       
PG14  11737.011958 -22333.923287   8111.632517    -66.279312 10  9  7  99       
PG15 -26104.486920  -3936.584534  -4509.565166     -3.165808  8  8  6 100       
PG16  10602.768339  10908.572444 -22053.208157   -525.952617  8  6  7 101       
PG17   6256.154235 -13956.884068  22162.765451    686.753036  6  5  4 107       
PG18  -8051.527864  16339.907394 -19275.392264    -63.292115  9 10  6 109       
PG19  -6957.426245 -15892.774594  19959.300090    251.971419  6  6  5 107       
PG20  -5943.357038 -17463.933138 -19163.122216    462.873213  8  6  4 108       
PG21  18349.555925  10271.011945  17275.340990    153.573837  5  6  2 104       
PG22   9852.354269  16155.150547  19135.310896    386.972452  4  5  6 120       
PG23 -16422.982315  20764.971939   -644.181879      0.289106 10 11  4  78       
PG24 -17977.122830  -5715.554220  18511.271717     10.763629  5  5  6 103       
PG25 -19784.871198  15018.015329   8694.492395    403.046653  6  4  6  85       
PG26   1685.317163  19860.338318 -17491.372627    238.620704  7  3  7  93       
PG27  18869.369983  12792.474912 -14187.310770    150.340610  6  4  8 104       
PG29 -21265.365922   5376.439737 -15075.356231   -574.745142  8  7  5 128       
PG30   1417.037189 -23123.789273 -12666.863901   -535.202554  8  5  1 108       
PG31   5910.472116  25274.940044   4142.461087   -203.599509  7  7  5  95       
PG32  -2012.589153  15201.624260  21841.850528   -333.436236  4  5  6 122       
*  2022 12 18  3 15  0.00000000
PG01  16455.585384   4455.351395  20153.869518    236.266585  5  5  5 111       
PG02 -16054.392915    275.508684 -20485.905983   -632.445189  4  7  6 126       
PG03  18797.809400  -5974.873823  17614.039915   -375.229231  7  4  5 117       
PG04  26247.770109    223.274719  -4420.637242    -66.484962  7  9  7  97       
PG05 -12836.915807  -8185.771424 -21933.641667   -108.490987  7  4  5 135       
PG06  -4648.872524 -24563.619922   8913.000417    542.267305  7  6  6 110       
PG07  10957.385359 -11639.591372 -20706.957332    272.818316  6  1  4  83       
PG08  24969.790741   6607.615228  -7033.405904    -99.185190  7  4  7  94       
PG09  20752.119665  -8643.792817 -14262.061357   -251.684492  8  4  3 106       
PG10  -9947.123497  23240.230696   7761.785361    -16.570465  2  5  4 109       
PG11 -12083.849902 -23380.822441  -3709.055420    -59.201862  6  4  6 119       
PG12 -18978.337930   3725.354402  17884.903403   -317.237679  5  9  5  83       
PG13 -19620.747737 -13284.588187 -12366.188882    443.840864  5  4  6 113       
PG14  12443.194701 -22760.816558   5412.738376    -66.273448 10  9  6  90       
PG15 -25491.502949  -4242.181424  -7183.726366     -3.162860  8  7  6 111       
PG16   8929.611564  12695.838908 -21792.199093   -525.952081  8  6  6  90       
PG17   8616.467775 -13480.934043  21656.717031    686.755167  6  5  4 102       
PG18  -8986.952378  14262.391725 -20485.807682    -63.305333  9 10  6 130       
PG19  -4627.520136 -15412.904012  20951.812842    251.976045  6  6  5 104       
PG20  -4833.492850 -19265.766773 -17714.689352    462.871288  7  5  4 107       
PG21  19057.830781  11865.607194  15378.672026    153.573226  5  6  2 107       
PG22   7705.978652  15799.523071  20388.365297    386.979445  4  5  6 121       
PG23 -16474.713935  20435.009727  -3517.316490      0.289739 10 11  6  69       
PG24 -18798.955916  -7642.978184  17002.838218     10.748067  6  5  6 102       
PG25 -19291.370697  13903.727304  11229.233223    403.049813  6  5  7  87       
PG26    449.518711  21323.015756 -15715.816053    238.621507  7  4  7  94       
PG27  17176.015700  12722.141266 -16246.710365    150.331671  7  4  7 112       
PG29 -22788.406991   4911.465858 -12843.569837   -574.747213  7  7  5 124       
PG30   2269.130087 -21741.909770 -14817.414408   -535.201952  8  4  2 108       
PG31   5387.452269  24771.477993   6916.168223   -203.600356  7  7  5 101       
PG32  -4451.627886  14894.681643  21672.949221   -333.448022  5  5  6 127       
*  2022 12 18  3 30  0.00000000
PG01  17377.348579   6535.895896  18818.410689    236.261890  5  4  5 105       
PG02 -17214.845574  -1847.445953 -19448.979503   -632.443455  2  7  6 131       
PG03  17727.550148  -4131.967771  19181.606822   -375.228898  7  3  4 113       
PG04  26567.146391    496.236579  -1596.424787    -66.478553  7  9  8  95       
PG05 -11556.727806 -10289.078856 -21747.225643   -108.491954  7  5  5 144       
PG06  -3993.902984 -23595.250294  11499.500602    542.274039  6  6  5 100       
PG07  12132.341795  -9434.581326 -21202.706667    272.813400  7  3  4  63       
PG08  24023.666173   6783.040569  -9651.684266    -99.185886  7  4  7  99       
PG09  22233.544123  -8376.009292 -12001.314011   -251.678920  7  3  3 107       
PG10 -10524.552896  23716.520929   4980.825140    -16.571773  3  5  4 103       
PG11 -11967.841616 -23717.778225   -863.953393    -59.208630  6  4  6 112       
PG12 -17756.432634   1910.621537  19352.816290   -317.241371  5  9  6  89       
PG13 -18107.205386 -13154.538925 -14622.546106    443.846801  4  5  6 117       
PG14  12945.176223 -22970.081505   2620.038768    -66.267636 10 10  5  93       
PG15 -24604.789692  -4593.631287  -9737.852642     -3.159795  7  7  5 111       
PG16   7382.753976  14535.337827 -21164.327216   -525.951482  7  7  5  86       
PG17  10924.589339 -13146.873543  20792.957525    686.757992  6  6  5 100       
PG18 -10082.175061  12133.140468 -21342.529579    -63.318479  9  9  7 109       
PG19  -2180.725092 -15043.476233  21577.999227    251.980626  6  7  4 107       
PG20  -3891.120178 -20955.468914 -15963.272001    462.868733  7  5  4 107       
PG21  19737.184505  13229.911903  13235.871100    153.572239  6  7  2 108       
PG22   5424.894707  15541.406705  21304.439064    386.986562  5  5  5 121       
PG23 -16372.109003  19834.404539  -6329.388742      0.290369 10 11  7  72       
PG24 -19614.337198  -9362.765664  15198.949906     10.732515  6  6  5 104       
PG25 -18701.844938  12531.275124  13564.869418    403.052962  5  5  7  83       
PG26   -608.259333  22657.950203 -13667.752705    238.622305  7  5  6  85       
PG27  15265.985563  12731.128517 -18035.393978    150.322722  7  5  7 103       
PG29 -24072.392551   4568.006239 -10392.119878   -574.749389  7  7  5 119       
PG30   3283.695242 -20195.153034 -16708.566796   -535.201387  8  5  2 110       
PG31   4708.796996  24012.779492   9566.954589   -203.601262  7  7  4  89       
PG32  -6865.889887  14717.396741  21135.779943   -333.459814  5  5  6 122       
EOF
